start=new Date('2022-12-01T00:00:00.000Z').valueOf();
sats=[{"ELEMENT_SET_NO":"999","NORAD_CAT_ID":"54005","REF_FRAME":"TEME","OBJECT_TYPE":"PAYLOAD","CLASSIFICATION_TYPE":"U","EPOCH":"2022-11-30T22:00:00.999936","MEAN_MOTION_DDOT":"0.0000000000000","SEMIMAJOR_AXIS":"6848.278","APOAPSIS":"470.973","MEAN_ANOMALY":"322.3315","PERIOD":"94.001","REV_AT_EPOCH":"913","RA_OF_ASC_NODE":"178.1413","CENTER_NAME":"EARTH","TIME_SYSTEM":"UTC","COUNTRY_CODE":"US","OBJECT_ID":"2022-125AT","INCLINATION":"53.2175","OBJECT_NAME":"STARLINK-5135","DECAY_DATE":null,"LAUNCH_DATE":"2022-10-05","ECCENTRICITY":"0.00012120","SITE":"AFWTR","ARG_OF_PERICENTER":"102.6274","MEAN_MOTION_DOT":"-0.01140724","BSTAR":"-0.04006800000000","TLE_LINE2":"2 54005  53.2175 178.1413 0001212 102.6274 322.3315 15.31901086  9138","MEAN_ELEMENT_THEORY":"SGP4","EPHEMERIS_TYPE":"0","RCS_SIZE":"LARGE","FILE":"3675845","TLE_LINE1":"1 54005U 22125AT  22334.91667824 -.01140724  00000-0 -40068-1 0  9993","GP_ID":"219180036","MEAN_MOTION":"15.31901086","PERIAPSIS":"469.313"},{"PERIAPSIS":"465.409","MEAN_MOTION":"15.33138040","TLE_LINE1":"1 54006U 22125AU  22334.91667824 -.01140324  00000-0 -38513-1 0  9992","GP_ID":"219219158","RCS_SIZE":"LARGE","FILE":"3676429","EPHEMERIS_TYPE":"0","MEAN_ELEMENT_THEORY":"SGP4","TLE_LINE2":"2 54006  53.2175 178.0702 0001534 130.2692 331.5412 15.33138040  1302","BSTAR":"-0.03851300000000","MEAN_MOTION_DOT":"-0.01140324","ARG_OF_PERICENTER":"130.2692","SITE":"AFWTR","ECCENTRICITY":"0.00015340","LAUNCH_DATE":"2022-10-05","DECAY_DATE":null,"OBJECT_NAME":"STARLINK-5096","INCLINATION":"53.2175","COUNTRY_CODE":"US","OBJECT_ID":"2022-125AU","RA_OF_ASC_NODE":"178.0702","CENTER_NAME":"EARTH","TIME_SYSTEM":"UTC","PERIOD":"93.925","REV_AT_EPOCH":"130","MEAN_ANOMALY":"331.5412","APOAPSIS":"467.509","SEMIMAJOR_AXIS":"6844.594","MEAN_MOTION_DDOT":"0.0000000000000","EPOCH":"2022-11-30T22:00:00.999936","CLASSIFICATION_TYPE":"U","REF_FRAME":"TEME","OBJECT_TYPE":"PAYLOAD","ELEMENT_SET_NO":"999","NORAD_CAT_ID":"54006"},{"CLASSIFICATION_TYPE":"U","ELEMENT_SET_NO":"999","NORAD_CAT_ID":"54007","OBJECT_TYPE":"PAYLOAD","REF_FRAME":"TEME","MEAN_MOTION_DDOT":"0.0000000000000","SEMIMAJOR_AXIS":"6846.434","APOAPSIS":"469.136","EPOCH":"2022-11-30T22:00:00.999936","PERIOD":"93.963","REV_AT_EPOCH":"130","RA_OF_ASC_NODE":"178.1061","TIME_SYSTEM":"UTC","CENTER_NAME":"EARTH","MEAN_ANOMALY":"353.0809","OBJECT_NAME":"STARLINK-5132","OBJECT_ID":"2022-125AV","COUNTRY_CODE":"US","INCLINATION":"53.2175","ECCENTRICITY":"0.00012220","SITE":"AFWTR","DECAY_DATE":null,"LAUNCH_DATE":"2022-10-05","MEAN_ELEMENT_THEORY":"SGP4","EPHEMERIS_TYPE":"0","MEAN_MOTION_DOT":"-0.01140885","BSTAR":"-0.03929900000000","ARG_OF_PERICENTER":"90.5860","TLE_LINE2":"2 54007  53.2175 178.1061 0001222  90.5860 353.0809 15.32519763  1304","TLE_LINE1":"1 54007U 22125AV  22334.91667824 -.01140885  00000-0 -39299-1 0  9997","GP_ID":"219218315","FILE":"3676429","RCS_SIZE":"LARGE","PERIAPSIS":"467.463","MEAN_MOTION":"15.32519763"},{"PERIAPSIS":"371.329","MEAN_MOTION":"15.65408739","TLE_LINE1":"1 54008U 22125AW  22334.91667824 -.00912178  00000-0 -98487-2 0  9994","GP_ID":"219218129","RCS_SIZE":"LARGE","FILE":"3676429","MEAN_ELEMENT_THEORY":"SGP4","EPHEMERIS_TYPE":"0","BSTAR":"-0.00984870000000","MEAN_MOTION_DOT":"-0.00912178","ARG_OF_PERICENTER":"93.2243","TLE_LINE2":"2 54008  53.2175 174.5111 0001091  93.2243 338.0099 15.65408739  1300","ECCENTRICITY":"0.00010910","SITE":"AFWTR","DECAY_DATE":null,"LAUNCH_DATE":"2022-10-05","OBJECT_NAME":"STARLINK-5145","INCLINATION":"53.2175","COUNTRY_CODE":"US","OBJECT_ID":"2022-125AW","CENTER_NAME":"EARTH","RA_OF_ASC_NODE":"174.5111","TIME_SYSTEM":"UTC","PERIOD":"91.989","REV_AT_EPOCH":"130","MEAN_ANOMALY":"338.0099","MEAN_MOTION_DDOT":"0.0000000000000","SEMIMAJOR_AXIS":"6750.200","APOAPSIS":"372.802","EPOCH":"2022-11-30T22:00:00.999936","CLASSIFICATION_TYPE":"U","NORAD_CAT_ID":"54008","ELEMENT_SET_NO":"999","OBJECT_TYPE":"PAYLOAD","REF_FRAME":"TEME"},{"MEAN_ANOMALY":"9.6119","REV_AT_EPOCH":"914","PERIOD":"93.944","RA_OF_ASC_NODE":"178.0879","CENTER_NAME":"EARTH","TIME_SYSTEM":"UTC","COUNTRY_CODE":"US","OBJECT_ID":"2022-125AX","INCLINATION":"53.2175","OBJECT_NAME":"STARLINK-5099","REF_FRAME":"TEME","OBJECT_TYPE":"PAYLOAD","NORAD_CAT_ID":"54009","ELEMENT_SET_NO":"999","CLASSIFICATION_TYPE":"U","EPOCH":"2022-11-30T22:00:00.999936","APOAPSIS":"468.233","SEMIMAJOR_AXIS":"6845.513","MEAN_MOTION_DDOT":"0.0000000000000","FILE":"3675852","RCS_SIZE":"LARGE","GP_ID":"219179552","TLE_LINE1":"1 54009U 22125AX  22334.91667824 -.01140836  00000-0 -38914-1 0  9998","MEAN_MOTION":"15.32829057","PERIAPSIS":"466.524","LAUNCH_DATE":"2022-10-05","DECAY_DATE":null,"SITE":"AFWTR","ECCENTRICITY":"0.00012480","TLE_LINE2":"2 54009  53.2175 178.0879 0001248  83.1974   9.6119 15.32829057  9142","BSTAR":"-0.03891400000000","MEAN_MOTION_DOT":"-0.01140836","ARG_OF_PERICENTER":"83.1974","EPHEMERIS_TYPE":"0","MEAN_ELEMENT_THEORY":"SGP4"},{"EPHEMERIS_TYPE":"0","MEAN_ELEMENT_THEORY":"SGP4","TLE_LINE2":"2 54010  53.2175 174.5158 0001314  52.4970  20.8880 15.65422833  9185","MEAN_MOTION_DOT":"-0.00912271","ARG_OF_PERICENTER":"52.4970","BSTAR":"-0.00984350000000","SITE":"AFWTR","ECCENTRICITY":"0.00013140","LAUNCH_DATE":"2022-10-05","DECAY_DATE":null,"PERIAPSIS":"371.138","MEAN_MOTION":"15.65422833","TLE_LINE1":"1 54010U 22125AY  22334.91667824 -.00912271  00000-0 -98435-2 0  9994","GP_ID":"219179545","RCS_SIZE":"LARGE","FILE":"3675852","APOAPSIS":"372.912","MEAN_MOTION_DDOT":"0.0000000000000","SEMIMAJOR_AXIS":"6750.160","EPOCH":"2022-11-30T22:00:00.999936","CLASSIFICATION_TYPE":"U","OBJECT_TYPE":"PAYLOAD","REF_FRAME":"TEME","ELEMENT_SET_NO":"999","NORAD_CAT_ID":"54010","OBJECT_NAME":"STARLINK-5127","OBJECT_ID":"2022-125AY","COUNTRY_CODE":"US","INCLINATION":"53.2175","PERIOD":"91.988","REV_AT_EPOCH":"918","CENTER_NAME":"EARTH","RA_OF_ASC_NODE":"174.5158","TIME_SYSTEM":"UTC","MEAN_ANOMALY":"20.8880"},{"COUNTRY_CODE":"US","OBJECT_ID":"2022-125AZ","INCLINATION":"53.2174","OBJECT_NAME":"STARLINK-5124","MEAN_ANOMALY":"282.8753","PERIOD":"91.823","REV_AT_EPOCH":"918","TIME_SYSTEM":"UTC","RA_OF_ASC_NODE":"174.7104","CENTER_NAME":"EARTH","EPOCH":"2022-11-30T22:00:00.999936","MEAN_MOTION_DDOT":"0.0000000000000","SEMIMAJOR_AXIS":"6742.107","APOAPSIS":"364.872","NORAD_CAT_ID":"54011","ELEMENT_SET_NO":"999","OBJECT_TYPE":"PAYLOAD","REF_FRAME":"TEME","CLASSIFICATION_TYPE":"U","MEAN_MOTION":"15.68228490","PERIAPSIS":"363.071","RCS_SIZE":"LARGE","FILE":"3675852","GP_ID":"219179549","TLE_LINE1":"1 54011U 22125AZ  22334.91667824 -.00914847  00000-0 -88064-2 0  9993","ARG_OF_PERICENTER":"47.5263","MEAN_MOTION_DOT":"-0.00914847","BSTAR":"-0.00880640000000","TLE_LINE2":"2 54011  53.2174 174.7104 0001336  47.5263 282.8753 15.68228490  9187","MEAN_ELEMENT_THEORY":"SGP4","EPHEMERIS_TYPE":"0","DECAY_DATE":null,"LAUNCH_DATE":"2022-10-05","ECCENTRICITY":"0.00013360","SITE":"AFWTR"},{"OBJECT_TYPE":"PAYLOAD","REF_FRAME":"TEME","ELEMENT_SET_NO":"999","NORAD_CAT_ID":"54012","CLASSIFICATION_TYPE":"U","EPOCH":"2022-11-30T22:00:00.999936","APOAPSIS":"364.917","SEMIMAJOR_AXIS":"6742.129","MEAN_MOTION_DDOT":"0.0000000000000","MEAN_ANOMALY":"289.2391","PERIOD":"91.824","REV_AT_EPOCH":"918","RA_OF_ASC_NODE":"174.7022","TIME_SYSTEM":"UTC","CENTER_NAME":"EARTH","OBJECT_ID":"2022-125BA","COUNTRY_CODE":"US","INCLINATION":"53.2174","OBJECT_NAME":"STARLINK-5126","LAUNCH_DATE":"2022-10-05","DECAY_DATE":null,"SITE":"AFWTR","ECCENTRICITY":"0.00013680","TLE_LINE2":"2 54012  53.2174 174.7022 0001368  45.2622 289.2391 15.68220606  9186","MEAN_MOTION_DOT":"-0.00914935","BSTAR":"-0.00881010000000","ARG_OF_PERICENTER":"45.2622","EPHEMERIS_TYPE":"0","MEAN_ELEMENT_THEORY":"SGP4","FILE":"3675852","RCS_SIZE":"LARGE","TLE_LINE1":"1 54012U 22125BA  22334.91667824 -.00914935  00000-0 -88101-2 0  9994","GP_ID":"219180051","MEAN_MOTION":"15.68220606","PERIAPSIS":"363.072"},{"EPOCH":"2022-11-30T22:00:00.999936","APOAPSIS":"364.976","SEMIMAJOR_AXIS":"6742.220","MEAN_MOTION_DDOT":"0.0000000000000","REF_FRAME":"TEME","OBJECT_TYPE":"PAYLOAD","NORAD_CAT_ID":"54013","ELEMENT_SET_NO":"999","CLASSIFICATION_TYPE":"U","OBJECT_ID":"2022-125BB","COUNTRY_CODE":"US","INCLINATION":"53.2174","OBJECT_NAME":"STARLINK-5098","MEAN_ANOMALY":"284.7416","REV_AT_EPOCH":"918","PERIOD":"91.826","RA_OF_ASC_NODE":"174.7050","TIME_SYSTEM":"UTC","CENTER_NAME":"EARTH","TLE_LINE2":"2 54013  53.2174 174.7050 0001321  48.2750 284.7416 15.68188921  9183","BSTAR":"-0.00882090000000","MEAN_MOTION_DOT":"-0.00914853","ARG_OF_PERICENTER":"48.2750","EPHEMERIS_TYPE":"0","MEAN_ELEMENT_THEORY":"SGP4","LAUNCH_DATE":"2022-10-05","DECAY_DATE":null,"SITE":"AFWTR","ECCENTRICITY":"0.00013210","MEAN_MOTION":"15.68188921","PERIAPSIS":"363.194","RCS_SIZE":"LARGE","FILE":"3675852","TLE_LINE1":"1 54013U 22125BB  22334.91667824 -.00914853  00000-0 -88209-2 0  9993","GP_ID":"219179547"},{"CLASSIFICATION_TYPE":"U","REF_FRAME":"TEME","OBJECT_TYPE":"PAYLOAD","ELEMENT_SET_NO":"999","NORAD_CAT_ID":"54014","APOAPSIS":"364.764","MEAN_MOTION_DDOT":"0.0000000000000","SEMIMAJOR_AXIS":"6742.176","EPOCH":"2022-11-30T22:00:00.999936","TIME_SYSTEM":"UTC","RA_OF_ASC_NODE":"174.7037","CENTER_NAME":"EARTH","REV_AT_EPOCH":"130","PERIOD":"91.825","MEAN_ANOMALY":"237.5533","OBJECT_NAME":"STARLINK-5116","INCLINATION":"53.2174","COUNTRY_CODE":"US","OBJECT_ID":"2022-125BC","SITE":"AFWTR","ECCENTRICITY":"0.00010730","LAUNCH_DATE":"2022-10-05","DECAY_DATE":null,"EPHEMERIS_TYPE":"0","MEAN_ELEMENT_THEORY":"SGP4","TLE_LINE2":"2 54014  53.2174 174.7037 0001073  96.2061 237.5533 15.68204279  1308","MEAN_MOTION_DOT":"-0.00913997","BSTAR":"-0.00880700000000","ARG_OF_PERICENTER":"96.2061","TLE_LINE1":"1 54014U 22125BC  22334.91667824 -.00913997  00000-0 -88070-2 0  9998","GP_ID":"219219159","FILE":"3676429","RCS_SIZE":"LARGE","PERIAPSIS":"363.318","MEAN_MOTION":"15.68204279"}];
